{"type":"FeatureCollection","features":[{"type":"Feature","properties":{"name":"9/1 20:30-22:00"},"geometry":{"type":"Polygon","coordinates":[[[140.627377,35.967282],[140.627481,35.967302],[140.627694,35.967388],[140.627744,35.967413],[140.628007,35.967548],[140.628156,35.967359],[140.628252,35.967227],[140.628292,35.967174],[140.628433,35.966941],[140.628567,35.966718],[140.628575,35.966705],[140.628621,35.966615],[140.628646,35.966575],[140.627634,35.966266],[140.627647,35.966214],[140.629388,35.966757],[140.629362,35.966803],[140.628773,35.966613],[140.628687,35.966589],[140.628625,35.966711],[140.628503,35.966927],[140.628488,35.966929],[140.628339,35.967196],[140.628248,35.96731],[140.628049,35.967572],[140.628267,35.967705],[140.62835,35.967759],[140.628577,35.967885],[140.6288,35.96799],[140.628911,35.967785],[140.629026,35.967556],[140.62937,35.966804],[140.629421,35.966823],[140.629247,35.967216],[140.629078,35.967584],[140.628852,35.968012],[140.629418,35.968263],[140.629473,35.968279],[140.629844,35.967689],[140.629892,35.96771],[140.629699,35.968031],[140.62968,35.968052],[140.629548,35.968269],[140.629534,35.968289],[140.629524,35.968312],[140.629506,35.968316],[140.629485,35.968324],[140.629457,35.968324],[140.629419,35.968319],[140.62938,35.968307],[140.62905,35.968156],[140.628763,35.968026],[140.628715,35.968006],[140.628516,35.967911],[140.628311,35.967793],[140.627995,35.967599],[140.627693,35.96744],[140.627469,35.967351],[140.627364,35.967327],[140.627377,35.967282]]]}},{"type":"Feature","properties":{"name":"9/1 20:30-22:00"},"geometry":{"type":"Polygon","coordinates":[[[140.6273214,35.9672596],[140.6273163,35.9672587],[140.6273619,35.9671208],[140.6273968,35.9669965],[140.6274122,35.9669238],[140.6274276,35.9668565],[140.6274645,35.9667024],[140.627492,35.9665987],[140.6275329,35.9664354],[140.6275496,35.9663203],[140.6275993,35.9661135],[140.6276194,35.9660278],[140.627665,35.9658416],[140.627777,35.9653602],[140.6277756,35.9653467],[140.627775,35.9653326],[140.6277803,35.9652897],[140.627777,35.9652555],[140.6277568,35.9652153],[140.6279091,35.965211],[140.6278702,35.965338],[140.6278541,35.9653738],[140.627846,35.9653934],[140.627726,35.9659003],[140.6276468,35.9662136],[140.627634,35.9662657],[140.6276085,35.9664164],[140.6275695,35.9665649],[140.6275413,35.9666865],[140.6275038,35.9668471],[140.6274984,35.9668775],[140.6274743,35.9669947],[140.627426,35.967151],[140.6273911,35.9672715],[140.6273214,35.9672596]]]}}]}
