{"type":"FeatureCollection","features":[{"type":"Feature","properties":{"name":"9/2 08:00-10:00"},"geometry":{"type":"Polygon","coordinates":[[[140.627264,35.967589],[140.627211,35.967568],[140.627306,35.967318],[140.626808,35.96723],[140.626111,35.967133],[140.626118,35.967087],[140.62655,35.967149],[140.626786,35.967178],[140.627318,35.967271],[140.627334,35.967234],[140.627404,35.967002],[140.627492,35.966626],[140.627539,35.966442],[140.627557,35.966327],[140.62761,35.966091],[140.627624,35.966045],[140.627785,35.965368],[140.62784,35.965379],[140.627786,35.96562],[140.627647,35.966214],[140.627634,35.966266],[140.627558,35.966593],[140.627498,35.966838],[140.627465,35.967003],[140.627377,35.967282],[140.627364,35.967327],[140.627264,35.967589]]]}},{"type":"Feature","properties":{"name":"9/2 08:00-10:00"},"geometry":{"type":"Polygon","coordinates":[[[140.627377,35.967282],[140.627481,35.967302],[140.627694,35.967388],[140.627744,35.967413],[140.628007,35.967548],[140.628156,35.967359],[140.628252,35.967227],[140.628292,35.967174],[140.628433,35.966941],[140.628567,35.966718],[140.628575,35.966705],[140.628621,35.966615],[140.628646,35.966575],[140.627634,35.966266],[140.627647,35.966214],[140.629388,35.966757],[140.629362,35.966803],[140.628773,35.966613],[140.628687,35.966589],[140.628625,35.966711],[140.628503,35.966927],[140.628488,35.966929],[140.628339,35.967196],[140.628248,35.96731],[140.628049,35.967572],[140.628267,35.967705],[140.62835,35.967759],[140.628577,35.967885],[140.6288,35.96799],[140.628911,35.967785],[140.629026,35.967556],[140.62937,35.966804],[140.629421,35.966823],[140.629247,35.967216],[140.629078,35.967584],[140.628852,35.968012],[140.629418,35.968263],[140.629473,35.968279],[140.629844,35.967689],[140.629892,35.96771],[140.629699,35.968031],[140.62968,35.968052],[140.629548,35.968269],[140.629534,35.968289],[140.629524,35.968312],[140.629506,35.968316],[140.629485,35.968324],[140.629457,35.968324],[140.629419,35.968319],[140.62938,35.968307],[140.62905,35.968156],[140.628763,35.968026],[140.628715,35.968006],[140.628516,35.967911],[140.628311,35.967793],[140.627995,35.967599],[140.627693,35.96744],[140.627469,35.967351],[140.627364,35.967327],[140.627377,35.967282]]]}},{"type":"Feature","properties":{"name":"9/2 08:00-10:00"},"geometry":{"type":"Polygon","coordinates":[[[140.62784,35.965379],[140.627785,35.965368],[140.6277743,35.9653638],[140.6277757,35.9653183],[140.6277777,35.9652949],[140.6277824,35.9652786],[140.627777,35.9652504],[140.6277609,35.9652206],[140.6277334,35.9651983],[140.6277079,35.9651907],[140.6276778,35.9651869],[140.6276523,35.9651869],[140.6276114,35.9651815],[140.6275705,35.9651761],[140.6275202,35.9651652],[140.6274109,35.9651375],[140.6272774,35.9651006],[140.6271246,35.9650583],[140.6269629,35.9650116],[140.6268503,35.9649785],[140.6264245,35.9648526],[140.626171,35.9647766],[140.6256795,35.9646322],[140.625593,35.9646078],[140.6251424,35.9644803],[140.6251189,35.9644803],[140.6251431,35.9644162],[140.6251558,35.9644276],[140.6261563,35.9647109],[140.6262709,35.9647381],[140.6264118,35.964782],[140.6266686,35.9648553],[140.6269348,35.9649351],[140.6270863,35.9649796],[140.6273177,35.9650447],[140.627555,35.9651061],[140.6276027,35.9651136],[140.627661,35.9651218],[140.6276945,35.9651218],[140.6277106,35.9651212],[140.6277435,35.9651174],[140.6277877,35.9651837],[140.6279359,35.9651793],[140.6279138,35.9652032],[140.627897,35.9652368],[140.6278722,35.9653335],[140.62784,35.965379]]]}},{"type":"Feature","properties":{"name":"9/2 08:00-10:00"},"geometry":{"type":"Polygon","coordinates":[[[140.6249065,35.9644337],[140.6248976,35.9644224],[140.6248768,35.9644078],[140.6248299,35.9643931],[140.6246616,35.9643459],[140.6244148,35.9642753],[140.6241935,35.9642151],[140.6239776,35.9641619],[140.6237261,35.9641038],[140.6235605,35.9640718],[140.6234371,35.9640501],[140.6233319,35.9640349],[140.623189,35.9640192],[140.6230107,35.9640045],[140.6229798,35.9639969],[140.6228249,35.9639899],[140.6227585,35.9639904],[140.6226915,35.9639931],[140.6226191,35.9639996],[140.6224984,35.9640208],[140.6223562,35.9640479],[140.6218271,35.964169],[140.6213584,35.9642797],[140.6209682,35.9643931],[140.620651,35.9644968],[140.6204653,35.9645657],[140.6202782,35.9646444],[140.6200301,35.9647486],[140.6197437,35.9648854],[140.6195097,35.9650031],[140.6194111,35.9650552],[140.6193079,35.9651063],[140.6191892,35.9651622],[140.619102,35.9651991],[140.6189619,35.9652463],[140.618919,35.9652588],[140.618819,35.9652843],[140.6187386,35.9653006],[140.6186642,35.9653179],[140.618579,35.9653326],[140.6184885,35.9653451],[140.618402,35.965357],[140.6183302,35.9653624],[140.6182102,35.96537],[140.618127,35.9653711],[140.6180526,35.96537],[140.6179721,35.9653651],[140.6178508,35.9653554],[140.6174069,35.9653022],[140.617203,35.9652854],[140.6171896,35.9652751],[140.6169623,35.9652474],[140.6168141,35.9652295],[140.6162642,35.9651546],[140.6161811,35.9651448],[140.6156058,35.9650677],[140.6151002,35.9649988],[140.6146737,35.9649424],[140.6146328,35.9649369],[140.6146127,35.9649386],[140.6145818,35.9649445],[140.6146442,35.9648707],[140.6146516,35.9648843],[140.6150076,35.9649304],[140.6154234,35.9649874],[140.6158123,35.9650395],[140.6160611,35.9650721],[140.6164285,35.9651209],[140.6167558,35.9651654],[140.6168114,35.9651714],[140.6169536,35.9651909],[140.6169609,35.9651909],[140.6169723,35.965185],[140.6169757,35.965179],[140.6169757,35.965173],[140.6169697,35.9651633],[140.6169328,35.9651377],[140.6167993,35.9650585],[140.6166512,35.9649706],[140.6164554,35.9648572],[140.6161549,35.9646819],[140.6157835,35.964468],[140.6155789,35.9643606],[140.6154609,35.9643079],[140.6153711,35.9642601],[140.6153288,35.9642422],[140.6152953,35.9642412],[140.615357,35.9641793],[140.6153597,35.9641901],[140.6153711,35.964201],[140.6154375,35.9642368],[140.615536,35.964284],[140.6156138,35.9643204],[140.615766,35.9644002],[140.6158612,35.9644512],[140.6163601,35.964741],[140.6168128,35.965008],[140.6170099,35.9651242],[140.6170314,35.9651448],[140.617081,35.9652143],[140.6171889,35.9652268],[140.6173338,35.9652419],[140.6174605,35.965255],[140.6176208,35.965274],[140.6177294,35.9652865],[140.6178441,35.9653022],[140.6179775,35.965312],[140.6181136,35.9653163],[140.6182772,35.9653103],[140.6183731,35.9653054],[140.6184456,35.9652962],[140.6185208,35.9652857],[140.6186241,35.9652684],[140.6187193,35.9652499],[140.6188199,35.965226],[140.6189459,35.9651918],[140.6190385,35.9651598],[140.6190968,35.9651387],[140.6191571,35.9651126],[140.6192128,35.965086],[140.6192966,35.9650486],[140.619654,35.9648651],[140.619998,35.9647039],[140.6202401,35.9645981],[140.6204795,35.964501],[140.6207665,35.9643995],[140.6209629,35.9643365],[140.6213753,35.9642198],[140.6218461,35.964108],[140.6222343,35.9640206],[140.6224147,35.9639805],[140.6225582,35.9639544],[140.6226226,35.9639452],[140.6226876,35.9639387],[140.6227781,35.9639333],[140.6228566,35.9639354],[140.6231436,35.963956],[140.6232173,35.9639658],[140.6232804,35.9639745],[140.623619,35.9640255],[140.6236861,35.9640391],[140.6238349,35.9640706],[140.6239637,35.9640999],[140.6241279,35.9641406],[140.6243988,35.9642128],[140.624887,35.9643495],[140.6249051,35.9643495],[140.6249219,35.964349],[140.6249413,35.964343],[140.6249065,35.9644337]]]}},{"type":"Feature","properties":{"name":"9/2 08:00-10:00"},"geometry":{"type":"Polygon","coordinates":[[[140.6150604,35.9640696],[140.6150094,35.9641275],[140.6150037,35.9641185],[140.6147033,35.9639972],[140.6145809,35.9639478],[140.6143844,35.9638694],[140.6142174,35.9638027],[140.6140538,35.9637373],[140.6138651,35.9636626],[140.6136307,35.9635734],[140.6135016,35.9635218],[140.613339,35.9634615],[140.6131955,35.9634005],[140.6131301,35.9633715],[140.6130976,35.9633552],[140.6130131,35.9633099],[140.6129917,35.9632976],[140.6129065,35.9632415],[140.6128723,35.9632162],[140.61282,35.9631755],[140.6127328,35.9630944],[140.6126678,35.9630287],[140.6125746,35.9629291],[140.6125444,35.9628966],[140.6124824,35.9628252],[140.6124227,35.9627554],[140.6123493,35.9626553],[140.6123144,35.9626073],[140.6122118,35.9624664],[140.6121133,35.9623044],[140.6120532,35.9622054],[140.6120009,35.9621234],[140.6119299,35.9620111],[140.6118836,35.9619256],[140.611833,35.9618241],[140.6116958,35.9616073],[140.6116714,35.9615709],[140.6116341,35.9615077],[140.6116261,35.9615001],[140.6116194,35.9614976],[140.611611,35.9615009],[140.6115513,35.9615215],[140.6114628,35.96155],[140.6113435,35.9615869],[140.6112305,35.9616203],[140.6111051,35.9616477],[140.6109599,35.9616634],[140.6108704,35.961671],[140.6108067,35.9616686],[140.6107245,35.9616572],[140.6106699,35.9616404],[140.6106856,35.9616138],[140.6107021,35.9616225],[140.6107284,35.9616286],[140.6108132,35.9616406],[140.6108709,35.9616414],[140.6109671,35.9616338],[140.6110988,35.9616194],[140.6112078,35.9615958],[140.6112283,35.9615909],[140.6113325,35.9615594],[140.6114616,35.9615193],[140.6115287,35.961497],[140.6116058,35.9614707],[140.6116252,35.9614612],[140.6116584,35.9614406],[140.6116826,35.9614286],[140.6118281,35.9613798],[140.612039,35.9613098],[140.6123588,35.9612056],[140.6124373,35.9611871],[140.6124886,35.9611763],[140.6125573,35.9611725],[140.6127152,35.961173],[140.6128161,35.9611744],[140.6128463,35.9611716],[140.6128745,35.9611646],[140.6129261,35.9611505],[140.6129811,35.9611261],[140.6130119,35.9611049],[140.6131098,35.9610294],[140.6131863,35.9609692],[140.6133539,35.9608449],[140.6134545,35.9607608],[140.6134766,35.9607391],[140.6135222,35.9606739],[140.6135806,35.960713],[140.6135732,35.9607271],[140.6135484,35.9607554],[140.6135175,35.9607906],[140.6134773,35.9608292],[140.6134163,35.9608758],[140.6132842,35.9609763],[140.6131869,35.9610544],[140.6130889,35.9611284],[140.6130346,35.9611654],[140.6129622,35.9612017],[140.6129354,35.9612115],[140.6128764,35.9612272],[140.6128174,35.9612332],[140.6125927,35.961231],[140.6125102,35.9612321],[140.6124801,35.9612392],[140.6123896,35.9612603],[140.6117384,35.9614731],[140.6117143,35.9614812],[140.6117096,35.9614921],[140.6117089,35.9615029],[140.61177,35.961592],[140.6118431,35.961707],[140.6118987,35.9617966],[140.6119255,35.9618476],[140.6119966,35.961986],[140.6120442,35.9620593],[140.6120757,35.9621081],[140.6120979,35.9621461],[140.612128,35.962189],[140.6122005,35.96231],[140.6122776,35.9624381],[140.6123828,35.9625803],[140.612411,35.9626232],[140.6124734,35.9627073],[140.6124888,35.9627274],[140.6125552,35.9628072],[140.6126195,35.9628756],[140.6126517,35.9629114],[140.6127081,35.9629765],[140.6127684,35.9630335],[140.6128053,35.963072],[140.6128636,35.9631268],[140.6129065,35.9631621],[140.6129629,35.9632028],[140.6130091,35.9632338],[140.6130809,35.9632761],[140.6131687,35.9633212],[140.6132251,35.9633472],[140.6132874,35.9633727],[140.6133873,35.963414],[140.6136066,35.9634981],[140.6137152,35.9635399],[140.6140619,35.9636745],[140.6143717,35.9637982],[140.614717,35.9639355],[140.6150436,35.964069],[140.6150604,35.9640696]]]}},{"type":"Feature","properties":{"name":"9/2 08:00-10:00"},"geometry":{"type":"Polygon","coordinates":[[[140.6111838,35.963742],[140.6111634,35.9637136],[140.6111667,35.9637122],[140.6111701,35.9637106],[140.6112415,35.9636769],[140.6113317,35.9636335],[140.6114839,35.9635583],[140.6115265,35.9635334],[140.6115711,35.963507],[140.6117068,35.9634175],[140.6118125,35.9633469],[140.6119808,35.9632387],[140.6121135,35.9631532],[140.6121209,35.9631453],[140.6121253,35.9631393],[140.6121628,35.9631198],[140.6121685,35.9631201],[140.6121779,35.9631187],[140.6122057,35.9631079],[140.6122634,35.9630707],[140.6125366,35.9629081],[140.6125423,35.9629022],[140.6125444,35.9628966],[140.6125715,35.9629266],[140.6125638,35.9629282],[140.6124123,35.9630186],[140.6122845,35.9630932],[140.6122309,35.9631277],[140.6122141,35.9631358],[140.6122,35.9631421],[140.6121863,35.963145],[140.6121675,35.9631537],[140.6120673,35.9632188],[140.611964,35.9632872],[140.611796,35.9633958],[140.6117219,35.9634438],[140.6116284,35.9635057],[140.6115908,35.9635309],[140.611503,35.9635838],[140.6113223,35.9636715],[140.6112375,35.9637098],[140.6111865,35.9637353],[140.6111838,35.963742]]]}},{"type":"Feature","properties":{"name":"9/2 08:00-10:00"},"geometry":{"type":"Polygon","coordinates":[[[140.6141388,35.9615597],[140.6141826,35.9616117],[140.6141219,35.9616367],[140.6140173,35.9616763],[140.6139271,35.9617086],[140.6138718,35.961727],[140.6138017,35.9617485],[140.613739,35.9617631],[140.6136404,35.9617856],[140.6135194,35.9618111],[140.6133698,35.9618361],[140.6131858,35.9618662],[140.6129974,35.961895],[140.6128881,35.9619059],[140.6128827,35.9619075],[140.6128753,35.9619118],[140.612872,35.961917],[140.612872,35.9619238],[140.6128777,35.9619395],[140.6128995,35.9619981],[140.6129276,35.9620578],[140.6129655,35.9621365],[140.6129712,35.9621468],[140.6130255,35.9622415],[140.6131097,35.962378],[140.613224,35.9625599],[140.6131698,35.9625991],[140.6131557,35.9625741],[140.6130464,35.9623999],[140.6129633,35.9622653],[140.6129023,35.9621665],[140.6128808,35.9621193],[140.6128372,35.9620248],[140.6128024,35.9619413],[140.6127943,35.9619277],[140.6127822,35.9619179],[140.6127675,35.9619152],[140.6126817,35.9619185],[140.6124979,35.961932],[140.6123953,35.9619494],[140.6122753,35.9619787],[140.61205,35.9620422],[140.6120406,35.9620541],[140.6119966,35.961986],[140.6120104,35.9619906],[140.6120238,35.9619879],[140.6123819,35.9618924],[140.6124818,35.9618767],[140.6125791,35.9618669],[140.6127789,35.961855],[140.6128372,35.9618506],[140.6129827,35.9618376],[140.6130169,35.9618332],[140.6131665,35.9618083],[140.6132208,35.9617985],[140.6135393,35.9617448],[140.6136788,35.961716],[140.6138048,35.9616851],[140.6138565,35.9616666],[140.6139966,35.9616189],[140.6141274,35.96157],[140.6141388,35.9615597]]]}},{"type":"Feature","properties":{"name":"9/2 08:00-10:00"},"geometry":{"type":"Polygon","coordinates":[[[140.6126469,35.9629055],[140.6126227,35.9628789],[140.6126318,35.9628776],[140.612666,35.9628602],[140.6127773,35.9628021],[140.6128162,35.9627815],[140.6129406,35.9627158],[140.6131595,35.9626105],[140.6131679,35.9626051],[140.6131698,35.9625991],[140.613185,35.9626311],[140.6131186,35.9626643],[140.6129493,35.9627457],[140.6128142,35.9628165],[140.6126529,35.9629003],[140.6126469,35.9629055]]]}},{"type":"Feature","properties":{"name":"9/2 08:00-10:00"},"geometry":{"type":"Polygon","coordinates":[[[140.6111415,35.9636833],[140.6111362,35.9636811],[140.6110362,35.9636426],[140.6110413,35.9636369],[140.611044,35.9636323],[140.611047,35.9636233],[140.6110487,35.9636155],[140.61105,35.9636122],[140.61105,35.9636041],[140.611044,35.9635745],[140.6110383,35.9635411],[140.6110218,35.9634551],[140.6110037,35.9633658],[140.6109839,35.9632795],[140.6109668,35.9632024],[140.6109494,35.9631292],[140.6109347,35.9630627],[140.6109286,35.9630383],[140.6109182,35.9630027],[140.6109135,35.962984],[140.6109052,35.9629699],[140.6108743,35.9629175],[140.6108545,35.9628822],[140.610829,35.9628393],[140.6107949,35.9627799],[140.610763,35.9627267],[140.6107318,35.9626733],[140.6107124,35.9626421],[140.6106641,35.9625083],[140.6106611,35.962499],[140.6106547,35.9624649],[140.610652,35.9624326],[140.6106564,35.9623997],[140.6106664,35.9623653],[140.6106728,35.9623449],[140.6107,35.9623039],[140.6107224,35.9622733],[140.6107539,35.962244],[140.6108498,35.962175],[140.6108797,35.962159],[140.6109142,35.9621406],[140.6109249,35.9621359],[140.6109658,35.9621199],[140.6110299,35.9621053],[140.6110916,35.9620985],[140.611114,35.9620966],[140.6112133,35.9620792],[140.6112921,35.9620692],[140.611332,35.962064],[140.6114805,35.9620423],[140.6115931,35.962022],[140.6116414,35.9620114],[140.6117973,35.9619748],[140.611852,35.9619623],[140.6118879,35.9619525],[140.6118905,35.9619484],[140.6118912,35.9619384],[140.6119274,35.9620073],[140.6119167,35.9620054],[140.6119003,35.9620062],[140.6116931,35.9620548],[140.6116612,35.9620638],[140.611618,35.9620727],[140.6116086,35.9620733],[140.6113363,35.962118],[140.6112287,35.9621316],[140.6111228,35.9621495],[140.6110413,35.9621574],[140.610987,35.9621699],[140.610938,35.9621919],[140.6108941,35.9622152],[140.6108475,35.9622461],[140.6108076,35.9622754],[140.6107932,35.9622887],[140.6107623,35.9623227],[140.6107332,35.9623663],[140.6107231,35.9624014],[140.6107171,35.9624369],[140.6107224,35.9624782],[140.6107261,35.9624925],[140.6107379,35.9625243],[140.610764,35.9625948],[140.6107741,35.9626239],[140.6108066,35.9626814],[140.6108508,35.9627536],[140.6109434,35.9629104],[140.6109642,35.9629449],[140.6109829,35.9629915],[140.6109996,35.9630553],[140.6110124,35.9631099],[140.6110288,35.9631804],[140.6110482,35.963267],[140.6110734,35.9633804],[140.6110898,35.9634602],[140.6111089,35.963563],[140.611119,35.9636173],[140.6111257,35.9636377],[140.6111378,35.9636653],[140.6111461,35.9636843],[140.6111415,35.9636833]]]}}]}
