{"type":"FeatureCollection","features":[{"type":"Feature","properties":{"name":"9/2 16:30-17:00"},"geometry":{"type":"Polygon","coordinates":[[[140.6309484,35.9663709],[140.6309604,35.9663578],[140.6310221,35.9663763],[140.6309323,35.9665879],[140.6315009,35.9667627],[140.6316042,35.9665598],[140.6316619,35.9665793],[140.6315492,35.9667888],[140.6315358,35.9668083],[140.6315076,35.9668169],[140.6314419,35.9667932],[140.6309148,35.9666281],[140.6307084,35.9671156],[140.6306694,35.9672153],[140.63061,35.9671968],[140.6306292,35.9671589],[140.6309484,35.9663709]]]}},{"type":"Feature","properties":{"name":"9/2 16:30-17:00"},"geometry":{"type":"Polygon","coordinates":[[[140.627264,35.967589],[140.627211,35.967568],[140.627306,35.967318],[140.626808,35.96723],[140.626111,35.967133],[140.626118,35.967087],[140.62655,35.967149],[140.626786,35.967178],[140.627318,35.967271],[140.627334,35.967234],[140.627404,35.967002],[140.627492,35.966626],[140.627539,35.966442],[140.627557,35.966327],[140.62761,35.966091],[140.627624,35.966045],[140.627785,35.965368],[140.62784,35.965379],[140.627786,35.96562],[140.627647,35.966214],[140.627634,35.966266],[140.627558,35.966593],[140.627498,35.966838],[140.627465,35.967003],[140.627377,35.967282],[140.627364,35.967327],[140.627264,35.967589]]]}},{"type":"Feature","properties":{"name":"9/2 16:30-17:00"},"geometry":{"type":"Polygon","coordinates":[[[140.627377,35.967282],[140.627481,35.967302],[140.627694,35.967388],[140.627744,35.967413],[140.628007,35.967548],[140.628156,35.967359],[140.628252,35.967227],[140.628292,35.967174],[140.628433,35.966941],[140.628567,35.966718],[140.628575,35.966705],[140.628621,35.966615],[140.628646,35.966575],[140.627634,35.966266],[140.627647,35.966214],[140.629388,35.966757],[140.629362,35.966803],[140.628773,35.966613],[140.628687,35.966589],[140.628625,35.966711],[140.628503,35.966927],[140.628488,35.966929],[140.628339,35.967196],[140.628248,35.96731],[140.628049,35.967572],[140.628267,35.967705],[140.62835,35.967759],[140.628577,35.967885],[140.6288,35.96799],[140.628911,35.967785],[140.629026,35.967556],[140.62937,35.966804],[140.629421,35.966823],[140.629247,35.967216],[140.629078,35.967584],[140.628852,35.968012],[140.629418,35.968263],[140.629473,35.968279],[140.629844,35.967689],[140.629892,35.96771],[140.629699,35.968031],[140.62968,35.968052],[140.629548,35.968269],[140.629534,35.968289],[140.629524,35.968312],[140.629506,35.968316],[140.629485,35.968324],[140.629457,35.968324],[140.629419,35.968319],[140.62938,35.968307],[140.62905,35.968156],[140.628763,35.968026],[140.628715,35.968006],[140.628516,35.967911],[140.628311,35.967793],[140.627995,35.967599],[140.627693,35.96744],[140.627469,35.967351],[140.627364,35.967327],[140.627377,35.967282]]]}},{"type":"Feature","properties":{"name":"9/2 16:30-17:00"},"geometry":{"type":"Polygon","coordinates":[[[140.63061,35.9671968],[140.6301886,35.9670727],[140.6301443,35.9670575],[140.6294211,35.9668226],[140.629362,35.966803],[140.6293875,35.9667574],[140.6297246,35.9659742],[140.6297836,35.9659905],[140.6294429,35.9667775],[140.6300437,35.9669761],[140.6306292,35.9671589],[140.63061,35.9671968]]]}},{"type":"Feature","properties":{"name":"9/2 16:30-17:00"},"geometry":{"type":"Polygon","coordinates":[[[140.6306694,35.9672153],[140.6303877,35.9678068],[140.6303716,35.9678285],[140.6303609,35.9678459],[140.6303394,35.96786],[140.6303166,35.9678708],[140.6302952,35.967873],[140.6302737,35.9678719],[140.6302388,35.9678665],[140.6301637,35.9678339],[140.6299062,35.9677134],[140.6298441,35.9676887],[140.6298647,35.9676624],[140.6298821,35.9675973],[140.6299317,35.9675029],[140.6299961,35.9673683],[140.6300645,35.9672369],[140.6301302,35.9670568],[140.6301886,35.9670727],[140.6301275,35.967212],[140.6300404,35.9673932],[140.6299854,35.9675116],[140.6299425,35.9675832],[140.6299116,35.9676711],[140.630259,35.9678263],[140.630275,35.9678263],[140.6302898,35.9678252],[140.6303086,35.967822],[140.6303206,35.9678122],[140.6303341,35.9677927],[140.63061,35.9671968],[140.6306694,35.9672153]]]}},{"type":"Feature","properties":{"name":"9/2 16:30-17:00"},"geometry":{"type":"Polygon","coordinates":[[[140.62784,35.965379],[140.627785,35.965368],[140.6277743,35.9653638],[140.6277757,35.9653183],[140.6277777,35.9652949],[140.6277824,35.9652786],[140.627777,35.9652504],[140.6277609,35.9652206],[140.6277334,35.9651983],[140.6277079,35.9651907],[140.6276778,35.9651869],[140.6276523,35.9651869],[140.6276114,35.9651815],[140.6275705,35.9651761],[140.6275202,35.9651652],[140.6274109,35.9651375],[140.6272774,35.9651006],[140.6271246,35.9650583],[140.6269629,35.9650116],[140.6268503,35.9649785],[140.6264245,35.9648526],[140.626171,35.9647766],[140.6256795,35.9646322],[140.625593,35.9646078],[140.6251424,35.9644803],[140.6251189,35.9644803],[140.6251431,35.9644162],[140.6251558,35.9644276],[140.6261563,35.9647109],[140.6262709,35.9647381],[140.6264118,35.964782],[140.6266686,35.9648553],[140.6269348,35.9649351],[140.6270863,35.9649796],[140.6273177,35.9650447],[140.627555,35.9651061],[140.6276027,35.9651136],[140.627661,35.9651218],[140.6276945,35.9651218],[140.6277106,35.9651212],[140.6277435,35.9651174],[140.6277877,35.9651837],[140.6279359,35.9651793],[140.6279138,35.9652032],[140.627897,35.9652368],[140.6278722,35.9653335],[140.62784,35.965379]]]}}]}
