{"type":"FeatureCollection","features":[{"type":"Feature","properties":{"name":"9/3 19:00-19:30"},"geometry":{"type":"Polygon","coordinates":[[[140.627377,35.967282],[140.627481,35.967302],[140.627694,35.967388],[140.627744,35.967413],[140.628007,35.967548],[140.628156,35.967359],[140.628252,35.967227],[140.628292,35.967174],[140.628433,35.966941],[140.628567,35.966718],[140.628575,35.966705],[140.628621,35.966615],[140.628646,35.966575],[140.627634,35.966266],[140.627647,35.966214],[140.629388,35.966757],[140.629362,35.966803],[140.628773,35.966613],[140.628687,35.966589],[140.628625,35.966711],[140.628503,35.966927],[140.628488,35.966929],[140.628339,35.967196],[140.628248,35.96731],[140.628049,35.967572],[140.628267,35.967705],[140.62835,35.967759],[140.628577,35.967885],[140.6288,35.96799],[140.628911,35.967785],[140.629026,35.967556],[140.62937,35.966804],[140.629421,35.966823],[140.629247,35.967216],[140.629078,35.967584],[140.628852,35.968012],[140.629418,35.968263],[140.629473,35.968279],[140.629844,35.967689],[140.629892,35.96771],[140.629699,35.968031],[140.62968,35.968052],[140.629548,35.968269],[140.629534,35.968289],[140.629524,35.968312],[140.629506,35.968316],[140.629485,35.968324],[140.629457,35.968324],[140.629419,35.968319],[140.62938,35.968307],[140.62905,35.968156],[140.628763,35.968026],[140.628715,35.968006],[140.628516,35.967911],[140.628311,35.967793],[140.627995,35.967599],[140.627693,35.96744],[140.627469,35.967351],[140.627364,35.967327],[140.627377,35.967282]]]}},{"type":"Feature","properties":{"name":"9/3 19:00-19:30"},"geometry":{"type":"Polygon","coordinates":[[[140.627854,35.965388],[140.627826,35.965501],[140.62774,35.96587],[140.627673,35.966092],[140.627647,35.966214],[140.627634,35.966266],[140.627607,35.966421],[140.62758,35.966551],[140.6275345,35.9667052],[140.627489,35.966892],[140.6274316,35.9671102],[140.627377,35.967282],[140.6273217,35.9672699],[140.627363,35.96712],[140.627408,35.96697],[140.627489,35.966603],[140.627527,35.966452],[140.627529,35.966404],[140.627601,35.966091],[140.627614,35.966026],[140.627773,35.965368],[140.627854,35.965388]]]}},{"type":"Feature","properties":{"name":"9/3 19:00-19:30"},"geometry":{"type":"Polygon","coordinates":[[[140.6305956,35.9672162],[140.6305902,35.9672048],[140.6305835,35.9671994],[140.6301845,35.9670729],[140.6301342,35.967055],[140.6299746,35.9670056],[140.6297185,35.9669231],[140.6294355,35.9668325],[140.6294211,35.9668226],[140.629362,35.966803],[140.6293875,35.9667574],[140.6293919,35.9667343],[140.629471,35.9665503],[140.6295515,35.9663614],[140.6296219,35.9661943],[140.6297145,35.965981],[140.6297842,35.966007],[140.629459,35.9667582],[140.629459,35.9667674],[140.6294623,35.9667755],[140.6294757,35.9667809],[140.6300075,35.9669508],[140.6305969,35.9671397],[140.6306076,35.9671424],[140.6306217,35.9671408],[140.6306291,35.9671353],[140.6306331,35.9671245],[140.6306908,35.9669872],[140.6307451,35.9668564],[140.6307853,35.9667625],[140.6308651,35.9665725],[140.6309456,35.9663815],[140.6309449,35.9663658],[140.631022,35.9663858],[140.6309667,35.9665199],[140.6309181,35.9666328],[140.6308641,35.9667617],[140.6307629,35.9670029],[140.6307257,35.9670911],[140.6306965,35.9671606],[140.630679,35.9671934],[140.630669,35.9672124],[140.630674,35.9672246],[140.6306506,35.9672526],[140.6305681,35.9674233],[140.6305158,35.9675373],[140.6304521,35.9676757],[140.6304004,35.9677826],[140.6303729,35.9678336],[140.6303562,35.9678513],[140.6303428,35.9678588],[140.6303213,35.9678696],[140.6302995,35.9678754],[140.6302797,35.9678754],[140.6302382,35.9678686],[140.6301768,35.967845],[140.6301349,35.9678271],[140.6300826,35.9678054],[140.6300058,35.9677674],[140.6299512,35.9677392],[140.6298924,35.9677102],[140.6298441,35.9676887],[140.6298673,35.9676597],[140.6300209,35.9673311],[140.6300678,35.9672285],[140.6301389,35.9670744],[140.6301406,35.967063],[140.6301377,35.9670591],[140.6301781,35.9670744],[140.6301741,35.9670795],[140.6301138,35.9672214],[140.6300846,35.967283],[140.6300407,35.9673777],[140.6299937,35.9674776],[140.6299639,35.9675351],[140.6299388,35.9675848],[140.6299166,35.9676344],[140.6299106,35.9676583],[140.6299133,35.9676697],[140.6299227,35.9676787],[140.6299418,35.9676849],[140.6299666,35.9676933],[140.6300025,35.9677091],[140.6300507,35.9677321],[140.6301054,35.9677582],[140.6301456,35.9677766],[140.6301932,35.9677962],[140.6302221,35.9678068],[140.6302482,35.9678168],[140.6302616,35.967822],[140.6302851,35.9678244],[140.6302951,35.9678244],[140.6303072,35.9678187],[140.6303213,35.9678068],[140.6303434,35.9677669],[140.6303837,35.9676795],[140.6304165,35.9676119],[140.6304625,35.9675131],[140.6305003,35.9674296],[140.6305319,35.9673636],[140.6305587,35.9673056],[140.6305942,35.9672269],[140.6305956,35.9672162]]]}}]}
